[{"OBJECT_NAME":"GONETS-M 7","OBJECT_ID":"2013-048C","EPOCH":"2026-03-09T23:42:54.853632","MEAN_MOTION":12.429108,"ECCENTRICITY":0.00186378,"INCLINATION":82.4876,"RA_OF_ASC_NODE":48.0853,"ARG_OF_PERICENTER":71.0162,"MEAN_ANOMALY":289.2936,"EPHEMERIS_TYPE":0,"CLASSIFICATION_TYPE":"U","NORAD_CAT_ID":39251,"ELEMENT_SET_NO":999,"REV_AT_EPOCH":56651,"BSTAR":0.0002596887,"MEAN_MOTION_DOT":4.6e-7,"MEAN_MOTION_DDOT":0},{"OBJECT_NAME":"DELTA 1 DEB","OBJECT_ID":"1973-086DM","EPOCH":"2026-03-09T11:38:38.822784","MEAN_MOTION":12.33127282,"ECCENTRICITY":0.00556739,"INCLINATION":102.1985,"RA_OF_ASC_NODE":15.717,"ARG_OF_PERICENTER":147.7682,"MEAN_ANOMALY":337.4401,"EPHEMERIS_TYPE":0,"CLASSIFICATION_TYPE":"U","NORAD_CAT_ID":7147,"ELEMENT_SET_NO":999,"REV_AT_EPOCH":35474,"BSTAR":0.00065847458,"MEAN_MOTION_DOT":3.6e-7,"MEAN_MOTION_DDOT":0}]
